[{"OBJECT_NAME":"FLOCK 4BE-32","OBJECT_ID":"2024-149AF","EPOCH":"2026-04-04T16:14:22.992864","MEAN_MOTION":15.39720872,"ECCENTRICITY":0.0004608,"INCLINATION":97.373,"RA_OF_ASC_NODE":177.9482,"ARG_OF_PERICENTER":164.9078,"MEAN_ANOMALY":195.2306,"EPHEMERIS_TYPE":0,"CLASSIFICATION_TYPE":"U","NORAD_CAT_ID":60497,"ELEMENT_SET_NO":999,"REV_AT_EPOCH":9101,"BSTAR":0.00066361,"MEAN_MOTION_DOT":0.00026217,"MEAN_MOTION_DDOT":0},{"OBJECT_NAME":"FLOCK 4BE-30","OBJECT_ID":"2024-149AH","EPOCH":"2026-04-04T19:07:21.309888","MEAN_MOTION":15.42770961,"ECCENTRICITY":0.0003386,"INCLINATION":97.3807,"RA_OF_ASC_NODE":178.7094,"ARG_OF_PERICENTER":205.8793,"MEAN_ANOMALY":154.2285,"EPHEMERIS_TYPE":0,"CLASSIFICATION_TYPE":"U","NORAD_CAT_ID":60499,"ELEMENT_SET_NO":999,"REV_AT_EPOCH":9041,"BSTAR":0.0024214,"MEAN_MOTION_DOT":0.00107157,"MEAN_MOTION_DDOT":0},{"OBJECT_NAME":"FLOCK 4BE-11","OBJECT_ID":"2024-149AK","EPOCH":"2026-04-04T18:37:41.334240","MEAN_MOTION":15.4053611,"ECCENTRICITY":0.0004708,"INCLINATION":97.3715,"RA_OF_ASC_NODE":178.2053,"ARG_OF_PERICENTER":165.0286,"MEAN_ANOMALY":195.11,"EPHEMERIS_TYPE":0,"CLASSIFICATION_TYPE":"U","NORAD_CAT_ID":60501,"ELEMENT_SET_NO":999,"REV_AT_EPOCH":9104,"BSTAR":0.00067088,"MEAN_MOTION_DOT":0.00027229,"MEAN_MOTION_DDOT":0},{"OBJECT_NAME":"FLOCK 4BE-24","OBJECT_ID":"2024-149AP","EPOCH":"2026-04-04T18:14:55.714848","MEAN_MOTION":15.40390396,"ECCENTRICITY":0.000478,"INCLINATION":97.3728,"RA_OF_ASC_NODE":178.4347,"ARG_OF_PERICENTER":174.1053,"MEAN_ANOMALY":186.025,"EPHEMERIS_TYPE":0,"CLASSIFICATION_TYPE":"U","NORAD_CAT_ID":60505,"ELEMENT_SET_NO":999,"REV_AT_EPOCH":9105,"BSTAR":0.00065569,"MEAN_MOTION_DOT":0.00026481,"MEAN_MOTION_DDOT":0},{"OBJECT_NAME":"TANAGER-1","OBJECT_ID":"2024-149AR","EPOCH":"2026-04-04T19:38:59.580960","MEAN_MOTION":15.43809009,"ECCENTRICITY":0.000723,"INCLINATION":97.3726,"RA_OF_ASC_NODE":188.5532,"ARG_OF_PERICENTER":199.1597,"MEAN_ANOMALY":160.938,"EPHEMERIS_TYPE":0,"CLASSIFICATION_TYPE":"U","NORAD_CAT_ID":60507,"ELEMENT_SET_NO":999,"REV_AT_EPOCH":9171,"BSTAR":0.00051786,"MEAN_MOTION_DOT":0.00023423,"MEAN_MOTION_DDOT":0},{"OBJECT_NAME":"FLOCK 4BE-29","OBJECT_ID":"2024-149AT","EPOCH":"2026-04-04T18:21:13.715712","MEAN_MOTION":15.41722844,"ECCENTRICITY":0.0003239,"INCLINATION":97.3817,"RA_OF_ASC_NODE":179.6701,"ARG_OF_PERICENTER":176.3857,"MEAN_ANOMALY":183.7414,"EPHEMERIS_TYPE":0,"CLASSIFICATION_TYPE":"U","NORAD_CAT_ID":60509,"ELEMENT_SET_NO":999,"REV_AT_EPOCH":9109,"BSTAR":0.00068415,"MEAN_MOTION_DOT":0.00028883,"MEAN_MOTION_DDOT":0},{"OBJECT_NAME":"FLOCK 4BE-2","OBJECT_ID":"2024-149AV","EPOCH":"2026-04-04T19:18:48.315168","MEAN_MOTION":15.45881646,"ECCENTRICITY":0.0004317,"INCLINATION":97.3822,"RA_OF_ASC_NODE":180.4274,"ARG_OF_PERICENTER":178.5966,"MEAN_ANOMALY":181.5296,"EPHEMERIS_TYPE":0,"CLASSIFICATION_TYPE":"U","NORAD_CAT_ID":60511,"ELEMENT_SET_NO":999,"REV_AT_EPOCH":9114,"BSTAR":0.0012501,"MEAN_MOTION_DOT":0.0006105,"MEAN_MOTION_DDOT":0},{"OBJECT_NAME":"FLOCK 4BE-13","OBJECT_ID":"2024-149AW","EPOCH":"2026-04-04T18:33:42.668064","MEAN_MOTION":15.39893319,"ECCENTRICITY":0.0004829,"INCLINATION":97.3731,"RA_OF_ASC_NODE":178.5333,"ARG_OF_PERICENTER":161.52,"MEAN_ANOMALY":198.6222,"EPHEMERIS_TYPE":0,"CLASSIFICATION_TYPE":"U","NORAD_CAT_ID":60512,"ELEMENT_SET_NO":999,"REV_AT_EPOCH":9106,"BSTAR":0.00057946,"MEAN_MOTION_DOT":0.00023003,"MEAN_MOTION_DDOT":0},{"OBJECT_NAME":"FLOCK 4BE-27","OBJECT_ID":"2024-149AX","EPOCH":"2026-04-04T16:03:41.142816","MEAN_MOTION":15.33190009,"ECCENTRICITY":0.0004002,"INCLINATION":97.3837,"RA_OF_ASC_NODE":176.5546,"ARG_OF_PERICENTER":185.5212,"MEAN_ANOMALY":174.5987,"EPHEMERIS_TYPE":0,"CLASSIFICATION_TYPE":"U","NORAD_CAT_ID":60513,"ELEMENT_SET_NO":999,"REV_AT_EPOCH":9087,"BSTAR":0.00044243,"MEAN_MOTION_DOT":0.00014123,"MEAN_MOTION_DDOT":0},{"OBJECT_NAME":"FLOCK 4BE-9","OBJECT_ID":"2024-149AY","EPOCH":"2026-04-04T18:43:49.126080","MEAN_MOTION":15.38615857,"ECCENTRICITY":0.0003382,"INCLINATION":97.3801,"RA_OF_ASC_NODE":178.4638,"ARG_OF_PERICENTER":176.5957,"MEAN_ANOMALY":183.5311,"EPHEMERIS_TYPE":0,"CLASSIFICATION_TYPE":"U","NORAD_CAT_ID":60514,"ELEMENT_SET_NO":999,"REV_AT_EPOCH":9102,"BSTAR":0.00061182,"MEAN_MOTION_DOT":0.00023295,"MEAN_MOTION_DDOT":0},{"OBJECT_NAME":"FLOCK 4BE-6","OBJECT_ID":"2024-149BA","EPOCH":"2026-04-04T18:08:27.256128","MEAN_MOTION":15.37587307,"ECCENTRICITY":0.0004122,"INCLINATION":97.3801,"RA_OF_ASC_NODE":177.9243,"ARG_OF_PERICENTER":179.146,"MEAN_ANOMALY":180.9793,"EPHEMERIS_TYPE":0,"CLASSIFICATION_TYPE":"U","NORAD_CAT_ID":60516,"ELEMENT_SET_NO":999,"REV_AT_EPOCH":9098,"BSTAR":0.00057375,"MEAN_MOTION_DOT":0.00021119,"MEAN_MOTION_DDOT":0},{"OBJECT_NAME":"FLOCK 4BE-14","OBJECT_ID":"2024-149BB","EPOCH":"2026-04-04T05:10:25.851936","MEAN_MOTION":15.38726009,"ECCENTRICITY":0.00049926,"INCLINATION":97.371,"RA_OF_ASC_NODE":177.4659,"ARG_OF_PERICENTER":184.1465,"MEAN_ANOMALY":175.974,"EPHEMERIS_TYPE":0,"CLASSIFICATION_TYPE":"U","NORAD_CAT_ID":60517,"ELEMENT_SET_NO":999,"REV_AT_EPOCH":9094,"BSTAR":0.00079151184,"MEAN_MOTION_DOT":0.00030303,"MEAN_MOTION_DDOT":0},{"OBJECT_NAME":"FLOCK 4BE-1","OBJECT_ID":"2024-149BC","EPOCH":"2026-04-04T18:13:16.203648","MEAN_MOTION":15.401933,"ECCENTRICITY":0.0004761,"INCLINATION":97.3792,"RA_OF_ASC_NODE":179.0384,"ARG_OF_PERICENTER":181.9815,"MEAN_ANOMALY":178.1413,"EPHEMERIS_TYPE":0,"CLASSIFICATION_TYPE":"U","NORAD_CAT_ID":60518,"ELEMENT_SET_NO":999,"REV_AT_EPOCH":9106,"BSTAR":0.00065387,"MEAN_MOTION_DOT":0.00026236,"MEAN_MOTION_DDOT":0},{"OBJECT_NAME":"FLOCK 4BE-28","OBJECT_ID":"2024-149BD","EPOCH":"2026-04-04T19:33:43.503840","MEAN_MOTION":15.42339856,"ECCENTRICITY":0.0004833,"INCLINATION":97.3754,"RA_OF_ASC_NODE":179.6005,"ARG_OF_PERICENTER":180.4894,"MEAN_ANOMALY":179.635,"EPHEMERIS_TYPE":0,"CLASSIFICATION_TYPE":"U","NORAD_CAT_ID":60519,"ELEMENT_SET_NO":999,"REV_AT_EPOCH":9112,"BSTAR":0.00054617,"MEAN_MOTION_DOT":0.00023508,"MEAN_MOTION_DDOT":0},{"OBJECT_NAME":"FLOCK 4BE-35","OBJECT_ID":"2024-149CU","EPOCH":"2026-04-04T18:52:47.423136","MEAN_MOTION":15.49706544,"ECCENTRICITY":0.0005786,"INCLINATION":97.3745,"RA_OF_ASC_NODE":178.4996,"ARG_OF_PERICENTER":197.972,"MEAN_ANOMALY":162.1328,"EPHEMERIS_TYPE":0,"CLASSIFICATION_TYPE":"U","NORAD_CAT_ID":60558,"ELEMENT_SET_NO":999,"REV_AT_EPOCH":9103,"BSTAR":0.0026039,"MEAN_MOTION_DOT":0.00146909,"MEAN_MOTION_DDOT":0},{"OBJECT_NAME":"FLOCK 4BE-5","OBJECT_ID":"2024-149CV","EPOCH":"2026-04-04T18:14:09.512448","MEAN_MOTION":15.38124418,"ECCENTRICITY":0.0003816,"INCLINATION":97.3851,"RA_OF_ASC_NODE":178.1736,"ARG_OF_PERICENTER":180.6571,"MEAN_ANOMALY":179.4669,"EPHEMERIS_TYPE":0,"CLASSIFICATION_TYPE":"U","NORAD_CAT_ID":60559,"ELEMENT_SET_NO":999,"REV_AT_EPOCH":9098,"BSTAR":0.00068559,"MEAN_MOTION_DOT":0.00025709,"MEAN_MOTION_DDOT":0}]
